IRIDIUM 126             
1 42809U 17039G   24116.06677634  .00000744  00000+0  25863-3 0  9997
2 42809  86.3947 320.9259 0002037  86.6304 273.5125 14.34219097357719
IRIDIUM 124             
1 42810U 17039H   24115.89123303  .00000595  00000+0  17084-3 0  9998
2 42810  86.4469 257.6944 0002071  89.2546 270.8892 14.43264869362133
IRIDIUM 128             
1 42811U 17039J   24116.12729911  .00000048  00000+0  99670-5 0  9999
2 42811  86.4002 352.4150 0002229  83.5475 276.5974 14.34215810357740
IRIDIUM 121             
1 42812U 17039K   24115.52764710  .00000774  00000+0  26925-3 0  9996
2 42812  86.3948 321.1742 0002212  90.9435 269.2014 14.34228000357502
IRIDIUM 133             
1 42955U 17061A   24115.67063458  .00000037  00000+0  60037-5 0  9992
2 42955  86.4000 352.7039 0002078  83.8970 276.2463 14.34216952342473
IRIDIUM 100             
1 42956U 17061B   24116.15267160  .00000212  00000+0  68541-4 0  9995
2 42956  86.4003 352.4398 0002310  83.0538 277.0921 14.34217007342563
IRIDIUM 122             
1 42957U 17061C   24115.70234227  .00000673  00000+0  23320-3 0  9990
2 42957  86.3999 352.6265 0002212  81.6907 278.4539 14.34216060342486
IRIDIUM 129             
1 42958U 17061D   24115.09980119 -.00000464  00000+0 -17285-3 0  9994
2 42958  86.4000 352.9360 0002278  86.3355 273.8101 14.34215588342412
